NORAD_CAT_ID,OBJECT_NAME,OBJECT_TYPE,EPOCH,MEAN_MOTION,ECCENTRICITY,INCLINATION,RA_OF_ASC_NODE,ARG_OF_PERICENTER,MEAN_ANOMALY,BSTAR,MEAN_MOTION_DOT,MEAN_MOTION_DDOT,TLE_LINE0,TLE_LINE1,TLE_LINE2,SEMIMAJOR_AXIS,PERIOD,APOGEE,PERIGEE,DECAYED
53138.0,STARLINK-4141,PAYLOAD,2022-09-06 14:00:01,15.32848191,0.0001564,53.2173,156.6075,37.1449,338.8767,-0.036051,-0.0106433999999999,0.0,0 STARLINK-4141,1 53138U 22083G   22249.58334491 -.01064340  00000-0 -36051-1 0  9997,2 53138  53.2173 156.6075 0001564  37.1449 338.8767 15.32848191  1305,6845.456,93.943,468.392,466.251,0.0
53138.0,STARLINK-4141,PAYLOAD,2022-09-06 20:00:01,15.32281278,0.0001573,53.2177,155.4444,42.0512,274.0402,-0.036833,-0.01067801,0.0,0 STARLINK-4141,1 53138U 22083G   22249.83334491 -.01067801  00000-0 -36833-1 0  9998,2 53138  53.2177 155.4444 0001573  42.0512 274.0402 15.32281278  8684,6847.145,93.978,470.087,467.9330000000001,0.0
53138.0,STARLINK-4141,PAYLOAD,2022-09-06 22:00:00,15.32112237,0.0001481,53.2172,155.056,49.8681,6.1234,-0.038127,-0.01096777,0.0,0 STARLINK-4141,1 53138U 22083G   22249.91667824 -.01096777  00000-0 -38127-1 0  9998,2 53138  53.2172 155.0560 0001481  49.8681   6.1234 15.32112237  1301,6847.648,93.988,470.528,468.499,0.0
53138.0,STARLINK-4141,PAYLOAD,2022-09-07 14:00:01,15.30566001,0.0001846,53.2171,151.9583,38.6212,94.6077,-0.0385,-0.01058487,0.0,0 STARLINK-4141,1 53138U 22083G   22250.58334491 -.01058487  00000-0 -38500-1 0  9995,2 53138  53.2171 151.9583 0001846  38.6212  94.6077 15.30566001  8800,6852.259,94.083,475.389,472.86,0.0
53138.0,STARLINK-4141,PAYLOAD,2022-09-07 22:00:00,15.29810111,0.0001881,53.2175,150.4143,39.7286,130.7408,-0.039623,-0.01063566,0.0,0 STARLINK-4141,1 53138U 22083G   22250.91667824 -.01063566  00000-0 -39623-1 0  9992,2 53138  53.2175 150.4143 0001881  39.7286 130.7408 15.29810111  1302,6854.516,94.129,477.671,475.092,0.0
53138.0,STARLINK-4141,PAYLOAD,2022-09-08 04:00:00,15.29238019,0.0001564,53.2173,149.2568,49.3701,58.4334,-0.040172,-0.01059607,0.0,0 STARLINK-4141,1 53138U 22083G   22251.16667824 -.01059607  00000-0 -40172-1 0  9992,2 53138  53.2173 149.2568 0001564  49.3701  58.4334 15.29238019  8890,6856.226,94.165,479.163,477.019,0.0
53138.0,STARLINK-4141,PAYLOAD,2022-09-08 14:00:01,15.28291531,0.0001612,53.2173,147.3266,47.4917,194.7266,-0.04155,-0.01064003,0.0,0 STARLINK-4141,1 53138U 22083G   22251.58334491 -.01064003  00000-0 -41550-1 0  9996,2 53138  53.2173 147.3266 0001612  47.4917 194.7266 15.28291531  1300,6859.056,94.223,482.027,479.816,0.0
53138.0,STARLINK-4141,PAYLOAD,2022-09-08 22:00:00,15.27604836,0.0001564999999999,53.2173,145.7863,53.2888,223.3911,-0.046255,-0.01151279,0.0,0 STARLINK-4141,1 53138U 22083G   22251.91667824 -.01151279  00000-0 -46255-1 0  9991,2 53138  53.2173 145.7863 0001565  53.2888 223.3911 15.27604836  9000,6861.111999999999,94.265,484.05,481.903,0.0
53138.0,STARLINK-4141,PAYLOAD,2022-09-09 14:00:01,15.26011528,0.0001530999999999,53.2173,142.7104,41.4488,301.5477,-0.044442,-0.01061609,0.0,0 STARLINK-4141,1 53138U 22083G   22252.58334491 -.01061609  00000-0 -44442-1 0  9999,2 53138  53.2173 142.7104 0001531  41.4488 301.5477 15.26011528  9109,6865.887,94.364,488.80300000000005,486.701,0.0
53138.0,STARLINK-4141,PAYLOAD,2022-09-09 22:00:00,15.25254687,0.0001666999999999,53.2175,141.1766,38.5942,336.1673,-0.045641,-0.01065236,0.0,0 STARLINK-4141,1 53138U 22083G   22252.91667824 -.01065236  00000-0 -45641-1 0  9997,2 53138  53.2175 141.1766 0001667  38.5942 336.1673 15.25254687  1300,6868.158,94.41,491.168,488.878,0.0
53138.0,STARLINK-4141,PAYLOAD,2022-09-10 12:00:00,15.23923222,0.0001520999999999,53.2175,138.4931,41.786,296.3738,-0.047333,-0.01061602,0.0,0 STARLINK-4141,1 53138U 22083G   22253.50001157 -.01061602  00000-0 -47333-1 0  9997,2 53138  53.2175 138.4931 0001521  41.7860 296.3738 15.23923222  9243,6872.158,94.493,495.068,492.977,0.0
53138.0,STARLINK-4141,PAYLOAD,2022-09-10 14:00:01,15.23733812,0.0001672,53.2174,138.11,39.7336,35.8263,-0.04767,-0.01063013,0.0,0 STARLINK-4141,1 53138U 22083G   22253.58334491 -.01063013  00000-0 -47670-1 0  9997,2 53138  53.2174 138.1100 0001672  39.7336  35.8263 15.23733812  1301,6872.727,94.505,495.741,493.443,0.0
53138.0,STARLINK-4141,PAYLOAD,2022-09-10 22:00:00,15.22975462,0.000204,53.2174,136.5819,32.7398,71.8476,-0.048823,-0.01064288,0.0,0 STARLINK-4141,1 53138U 22083G   22253.91667824 -.01064288  00000-0 -48823-1 0  9999,2 53138  53.2174 136.5819 0002040  32.7398  71.8476 15.22975462  1305,6875.0080000000025,94.552,498.276,495.471,0.0
53138.0,STARLINK-4141,PAYLOAD,2022-09-11 04:00:00,15.22405058,0.0001934,53.2173,135.4361,29.6523,6.1079,-0.049542,-0.01061958,0.0,0 STARLINK-4141,1 53138U 22083G   22254.16667824 -.01061958  00000-0 -49542-1 0  9997,2 53138  53.2173 135.4361 0001934  29.6523   6.1079 15.22405058  9341,6876.726,94.587,499.921,497.261,0.0
53138.0,STARLINK-4141,PAYLOAD,2022-09-11 14:00:01,15.21456812,0.0001965,53.2174,133.5259,36.7632,123.1456,-0.051128,-0.01065282,0.0,0 STARLINK-4141,1 53138U 22083G   22254.58334491 -.01065282  00000-0 -51128-1 0  9991,2 53138  53.2174 133.5259 0001965  36.7632 123.1456 15.21456812  1301,6879.583000000001,94.646,502.799,500.096,0.0
53138.0,STARLINK-4141,PAYLOAD,2022-09-11 20:00:01,15.20886808,0.0001996,53.2175,132.3836,32.5983,57.1137,-0.05193,-0.01064058,0.0,0 STARLINK-4141,1 53138U 22083G   22254.83334491 -.01064058  00000-0 -51930-1 0  9990,2 53138  53.2175 132.3836 0001996  32.5983  57.1137 15.20886808  9454,6881.301,94.682,504.54,501.793,0.0
53138.0,STARLINK-4141,PAYLOAD,2022-09-11 22:00:00,15.20695356,0.0002052,53.2174,132.003,36.755,149.4446,-0.052087,-0.01061516,0.0,0 STARLINK-4141,1 53138U 22083G   22254.91667824 -.01061516  00000-0 -52087-1 0  9998,2 53138  53.2174 132.0030 0002052  36.7550 149.4446 15.20695356  1306,6881.879,94.694,505.156,502.332,0.0
53138.0,STARLINK-4141,PAYLOAD,2022-09-12 14:00:01,15.19177686,0.0001683,53.2173,128.9576,47.9107,188.1338,-0.0545929999999999,-0.01063892,0.0,0 STARLINK-4141,1 53138U 22083G   22255.58334491 -.01063892  00000-0 -54593-1 0  9996,2 53138  53.2173 128.9576 0001683  47.9107 188.1338 15.19177686  1304,6886.462,94.788,509.486,507.168,0.0
53138.0,STARLINK-4141,PAYLOAD,2022-09-12 20:00:01,15.18606622,0.0001625,53.2175,127.8193,54.6891,109.169,-0.055352,-0.01061126,0.0,0 STARLINK-4141,1 53138U 22083G   22255.83335648 -.01061126  00000-0 -55352-1 0  9991,2 53138  53.2175 127.8193 0001625  54.6891 109.1690 15.18606622  9601,6888.188,94.824,511.172,508.934,0.0
53138.0,STARLINK-4141,PAYLOAD,2022-09-12 22:00:00,15.18433853,0.0001486999999999,53.2173,127.4392,57.5597,202.0292,-0.056924,-0.0109767,0.0,0 STARLINK-4141,1 53138U 22083G   22255.91667824 -.01097670  00000-0 -56924-1 0  9993,2 53138  53.2173 127.4392 0001487  57.5597 202.0292 15.18433853  1301,6888.71,94.835,511.6,509.551,0.0
53138.0,STARLINK-4141,PAYLOAD,2022-09-13 14:00:01,15.168973199999998,0.0001353,53.2175,124.4054,64.3798,239.587,-0.058119,-0.01073854,0.0,0 STARLINK-4141,1 53138U 22083G   22256.58334491 -.01073854  00000-0 -58119-1 0  9994,2 53138  53.2175 124.4054 0001353  64.3798 239.5870 15.16897320  1304,6893.361,94.931,516.159,514.294,0.0
53138.0,STARLINK-4141,PAYLOAD,2022-09-13 16:00:00,15.16707791,0.0001378,53.2176,124.0271,57.6038,341.6518,-0.0584149999999999,-0.01073489,0.0,0 STARLINK-4141,1 53138U 22083G   22256.66667824 -.01073489  00000-0 -58415-1 0  9995,2 53138  53.2176 124.0271 0001378  57.6038 341.6518 15.16707791  9732,6893.936,94.942,516.751,514.851,0.0
53138.0,STARLINK-4141,PAYLOAD,2022-09-13 22:00:00,15.16139425,0.0001636,53.2174,122.8934,44.3839,280.3962,-0.059528,-0.01076088,0.0,0 STARLINK-4141,1 53138U 22083G   22256.91667824 -.01076088  00000-0 -59528-1 0  9997,2 53138  53.2174 122.8934 0001636  44.3839 280.3962 15.16139425  1301,6895.659000000002,94.978,518.6519999999998,516.395,0.0
53138.0,STARLINK-4141,PAYLOAD,2022-09-14 14:00:01,15.1464432,0.0001683,53.2169,119.8681,39.6606,324.0,-0.06401,-0.01106356,0.0,0 STARLINK-4141,1 53138U 22083G   22257.58334491 -.01106356  00000-0 -64010-1 0  9996,2 53138  53.2169 119.8681 0001683  39.6606 324.0000 15.14644320  9862,6900.196,95.072,523.222,520.899,0.0
53138.0,STARLINK-4141,PAYLOAD,2022-09-14 22:00:00,15.13817892,0.0001641,53.2172,118.3611,49.7966,331.9784,-0.060105,-0.01008846,0.0,0 STARLINK-4141,1 53138U 22083G   22257.91667824 -.01008846  00000-0 -60105-1 0  9998,2 53138  53.2172 118.3611 0001641  49.7966 331.9784 15.13817892  1300,6902.706999999999,95.124,525.7040000000002,523.439,0.0
53138.0,STARLINK-4141,PAYLOAD,2022-09-15 14:00:01,15.12401367,0.0001725,53.2167,115.3473,36.53,18.6044,-0.071196,-0.01151239,0.0,0 STARLINK-4141,1 53138U 22083G   22258.58334491 -.01151239  00000-0 -71196-1 0  9990,2 53138  53.2167 115.3473 0001725  36.5300  18.6044 15.12401367  1309,6907.016,95.213,530.073,527.69,0.0
53138.0,STARLINK-4141,PAYLOAD,2022-09-15 22:00:00,15.11583574,0.0001992,53.2175,113.8473,34.57,35.9351,-0.067846,-0.01078029,0.0,0 STARLINK-4141,1 53138U 22083G   22258.91667824 -.01078029  00000-0 -67846-1 0  9998,2 53138  53.2175 113.8473 0001992  34.5700  35.9351 15.11583574  1302,6909.507,95.264,532.748,529.996,0.0
53138.0,STARLINK-4141,PAYLOAD,2022-09-16 14:00:01,15.10056492,0.0001751,53.2175,110.8441,48.865,49.5838,-0.069707,-0.01062665,0.0,0 STARLINK-4141,1 53138U 22083G   22259.58334491 -.01062665  00000-0 -69707-1 0  9990,2 53138  53.2175 110.8441 0001751  48.8650  49.5838 15.10056492  1303,6914.165,95.361,537.24,534.819,0.0
53138.0,STARLINK-4141,PAYLOAD,2022-09-16 22:00:00,15.09204105,0.0002032,53.2175,109.3479,42.8566,68.1998,-0.030962,-0.0046676,0.0,0 STARLINK-4141,1 53138U 22083G   22259.91667824 -.00466760  00000-0 -30962-1 0  9990,2 53138  53.2175 109.3479 0002032  42.8566  68.1998 15.09204105  1308,6916.768,95.415,540.038,537.227,0.0
